{
  "type": "FeatureCollection",
  "features": [
    {
      "type": "Feature",
      "properties": {
        "norad_id": 54741,
        "name": "GALAXY 35 (G-35)",
        "group": "intelsat",
        "lat": 0.039843113627149256,
        "lon": 67.39616937608153,
        "alt_km": 35795.55017374187,
        "timestamp": "2025-12-17T04:57:44.067935+00:00",
        "meta_object_name": "GALAXY 35 (G-35)",
        "meta_object_id": "2022-170A",
        "meta_epoch": "2025-12-16T09:02:06.067968",
        "meta_mean_motion": 1.00269185,
        "meta_eccentricity": 0.00022557,
        "meta_inclination": 0.0168,
        "meta_ra_of_asc_node": 359.4388,
        "meta_arg_of_pericenter": 272.3314,
        "meta_mean_anomaly": 215.9085,
        "meta_ephemeris_type": 0,
        "meta_classification_type": "U",
        "meta_norad_cat_id": 54741,
        "meta_element_set_no": 999,
        "meta_rev_at_epoch": 1106,
        "meta_bstar": 0,
        "meta_mean_motion_dot": 0,
        "meta_mean_motion_ddot": 0,
        "tle_line1": "1 54741U 22170A   25350.37645912  .00000000  00000+0  00000+0 0  9993",
        "tle_line2": "2 54741   0.0168 359.4388 0002255 272.3314 215.9085  1.00269185 11064"
      },
      "geometry": {
        "type": "Point",
        "coordinates": [
          67.39616937608153,
          0.039843113627149256
        ]
      }
    },
    {
      "type": "Feature",
      "properties": {
        "norad_id": 54742,
        "name": "GALAXY 36 (G-36)",
        "group": "intelsat",
        "lat": 0.018343527501144322,
        "lon": 71.5135258074745,
        "alt_km": 35786.39650135382,
        "timestamp": "2025-12-17T04:57:44.067946+00:00",
        "meta_object_name": "GALAXY 36 (G-36)",
        "meta_object_id": "2022-170B",
        "meta_epoch": "2025-12-16T14:38:44.933856",
        "meta_mean_motion": 1.00271369,
        "meta_eccentricity": 3.152e-05,
        "meta_inclination": 0.0154,
        "meta_ra_of_asc_node": 268.8557,
        "meta_arg_of_pericenter": 65.6179,
        "meta_mean_anomaly": 241.715,
        "meta_ephemeris_type": 0,
        "meta_classification_type": "U",
        "meta_norad_cat_id": 54742,
        "meta_element_set_no": 999,
        "meta_rev_at_epoch": 1094,
        "meta_bstar": 0,
        "meta_mean_motion_dot": -1.61e-06,
        "meta_mean_motion_ddot": 0,
        "tle_line1": "1 54742U 22170B   25350.61024229 -.00000161  00000+0  00000+0 0  9992",
        "tle_line2": "2 54742   0.0154 268.8557 0000315  65.6179 241.7150  1.00271369 10941"
      },
      "geometry": {
        "type": "Point",
        "coordinates": [
          71.5135258074745,
          0.018343527501144322
        ]
      }
    },
    {
      "type": "Feature",
      "properties": {
        "norad_id": 57493,
        "name": "GALAXY 37 (G-37)",
        "group": "intelsat",
        "lat": 0.005521196786074974,
        "lon": 33.5414187925879,
        "alt_km": 35790.28405209626,
        "timestamp": "2025-12-17T04:57:44.067957+00:00",
        "meta_object_name": "GALAXY 37 (G-37)",
        "meta_object_id": "2023-112A",
        "meta_epoch": "2025-12-15T23:03:25.663680",
        "meta_mean_motion": 1.00272925,
        "meta_eccentricity": 0.00019988,
        "meta_inclination": 0.0242,
        "meta_ra_of_asc_node": 56.2601,
        "meta_arg_of_pericenter": 214.3075,
        "meta_mean_anomaly": 33.1555,
        "meta_ephemeris_type": 0,
        "meta_classification_type": "U",
        "meta_norad_cat_id": 57493,
        "meta_element_set_no": 999,
        "meta_rev_at_epoch": 870,
        "meta_bstar": 0,
        "meta_mean_motion_dot": 7e-07,
        "meta_mean_motion_ddot": 0,
        "tle_line1": "1 57493U 23112A   25349.96071370  .00000070  00000+0  00000+0 0  9998",
        "tle_line2": "2 57493   0.0242  56.2601 0001998 214.3075  33.1555  1.00272925  8702"
      },
      "geometry": {
        "type": "Point",
        "coordinates": [
          33.5414187925879,
          0.005521196786074974
        ]
      }
    }
  ]
}